{
  "norad_id": 58748,
  "name": "STARLINK-31165",
  "history": [
    {
      "epoch": "2026-03-28T19:00:03.158208",
      "apogee_km": 484.11703839197617,
      "perigee_km": 481.8628837401884,
      "latitude_deg": 36.87119167865627,
      "longitude_deg": 130.80350911989808,
      "semi_major_axis_km": 6861.126961066082,
      "eccentricity": 0.00016427,
      "inclination_deg": 43.0033,
      "raan_deg": 111.9989,
      "arg_perigee_deg": 251.4916,
      "mean_anomaly_deg": 108.5758,
      "mean_motion_rev_day": 15.27599749
    }
  ]
}